GORIZONT 1 [-]          
1 11158U 78118A   22363.95631285 -.00000145  00000+0  00000+0 0  9995
2 11158  11.0849 197.6058 3430234 291.9954  35.2413  1.00304011110230
GORIZONT 2 [-]          
1 11440U 79062A   22363.85830223 -.00000041  00000+0  00000+0 0  9995
2 11440   8.8295 299.5877 0003540 308.3392 228.8584  1.00304611125338
GORIZONT 3 [-]          
1 11648U 79105A   22364.54771485 -.00000239  00000+0  00000+0 0  9993
2 11648   8.9904 301.0446 0012538 219.8975 225.2314  1.00339576109788
GORIZONT 4 [-]          
1 11841U 80049A   22364.41061737  .00000032  00000+0  00000+0 0  9995
2 11841  10.1504 306.9506 0001212 337.4974 210.8432  0.98627801221040
GORIZONT 5 [-]          
1 13092U 82020A   22365.43305223  .00000021  00000+0  00000+0 0  9998
2 13092  11.1555 312.2767 0033670 216.8553 339.4134  0.98530326109128
GORIZONT 6 [-]          
1 13624U 82103A   22364.54507816  .00000127  00000+0  00000+0 0  9991
2 13624  10.0847 312.3484 0000827 280.3858 265.6862  1.00331504108252
GORIZONT 7 [-]          
1 14160U 83066A   22364.74549253 -.00000178  00000+0  00000+0 0  9996
2 14160  11.7720 321.8124 0010011 321.5280 213.4344  0.98348926142352
GORIZONT 8 [-]          
1 14532U 83118A   22364.71524628 -.00000201  00000+0  00000+0 0  9990
2 14532  11.9529 323.6852 0029709 153.1280 217.6965  0.98271427108117
GORIZONT 9 [-]          
1 14940U 84041A   22364.44562289  .00000008  00000+0  00000+0 0  9998
2 14940  11.1424 321.6928 0004396 219.1373 142.7754  1.00228630109262
GORIZONT 10 [-]         
1 15144U 84078A   22364.61411282  .00000089  00000+0  00000+0 0  9999
2 15144  11.2417 322.7171 0000190 132.9599  54.3833  1.00260734141920
GORIZONT 11 [-]         
1 15484U 85007A   22364.81688066 -.00000347  00000+0  00000+0 0  9995
2 15484  11.4287 324.7098 0002736 155.6926  40.8419  1.00334578139945
GORIZONT 12 [-]         
1 16769U 86044A   22365.09146652  .00000123  00000+0  00000+0 0  9996
2 16769  12.0698 330.1138 0001430 255.7958 309.4283  1.00242098134592
GORIZONT 13 [-]         
1 17083U 86090A   22364.24927498 -.00000173  00000+0  00000+0 0  9994
2 17083  13.9728 337.3492 0013903 341.4677  28.5353  0.96727280106419
GORIZONT 14 [-]         
1 17969U 87040A   22365.47338968 -.00000098  00000+0  00000+0 0  9993
2 17969  12.8785 328.6870 0030785 177.9417  58.4667  0.97658628107508
GORIZONT 15 [-]         
1 19017U 88028A   22364.74985078 -.00000197  00000+0  00000+0 0  9995
2 19017  14.2748 340.1422 0036776 160.9036  19.0297  0.97829661107112
GORIZONT 16 [-]         
1 19397U 88071A   22364.74932779 -.00000280  00000+0  00000+0 0  9997
2 19397  13.1246 338.8161 0013687  63.3552 115.1531  0.99988873125586
GORIZONT 17 [-]         
1 19765U 89004A   22364.28283350 -.00000262  00000+0  00000+0 0  9996
2 19765  13.6861 342.1884 0022520 136.0581  49.4257  0.99068255123045
GORIZONT 18 [-]         
1 20107U 89052A   22364.68313314 -.00000334  00000+0  00000+0 0  9999
2 20107  13.7358 343.4390 0033982 321.0808 181.1880  0.99404439121836
GORIZONT 19 [-]         
1 20263U 89081A   22364.45041697 -.00000249  00000+0  00000+0 0  9996
2 20263  13.4635 342.6138 0003748 215.2894 151.3459  1.00350175 34666
GORIZONT 20 [-]         
1 20659U 90054A   22364.51715852 -.00000213  00000+0  00000+0 0  9996
2 20659  13.9125 345.4282 0006617 171.0659 215.5040  1.00230639119004
GORIZONT 21 [-]         
1 20923U 90094A   22364.35151951 -.00000298  00000+0  00000+0 0  9993
2 20923  13.9301 346.1968 0004457 209.9997 341.1673  1.00342666117762
GORIZONT 22 [-]         
1 20953U 90102A   22364.31595619 -.00000342  00000+0  00000+0 0  9995
2 20953  13.8902 346.5683 0002537  24.6574 334.8474  1.00232072117687
GORIZONT 23 [-]         
1 21533U 91046A   22364.01812830  .00000011  00000+0  00000+0 0  9994
2 21533  14.6725 350.7410 0004097 313.0980 240.0572  0.98906008 34170
GORIZONT 24 [-]         
1 21759U 91074A   22364.35073503 -.00000166  00000+0  00000+0 0  9990
2 21759  14.8368 352.6569 0017978 228.4180 311.9817  0.98443889112501
GORIZONT 25 [-]         
1 21922U 92017A   22364.18268093 -.00000018  00000+0  00000+0 0  9997
2 21922  14.3768 351.9666 0028511  85.0767 272.2512  0.99857760112302
GORIZONT 26 [-]         
1 22041U 92043A   22364.31534604 -.00000306  00000+0  00000+0 0  9998
2 22041  14.5574 353.9864 0031183 238.7609 109.1198  0.99244992110915
GORIZONT 27 [-]         
1 22245U 92082A   22365.15490646  .00000098  00000+0  00000+0 0  9994
2 22245  14.4728 353.5483 0011896  11.2093 174.8382  1.00180765114484
GORIZONT 28 [-]         
1 22880U 93069A   22364.35029920 -.00000280  00000+0  00000+0 0  9993
2 22880  14.6334 357.4331 0033846 136.0149  36.7444  0.99653535106524
GORIZONT 29 [-]         
1 22907U 93072A   22364.35090935 -.00000308  00000+0  00000+0 0  9992
2 22907  14.5424 356.8790 0009929 346.4827 190.3584  1.00141605106503
GORIZONT 30 [-]         
1 23108U 94030A   22365.32155813 -.00000301  00000+0  00000+0 0  9999
2 23108  14.5595 357.7715 0001752 188.9792 169.2687  1.00243660104814
GORIZONT 31 [-]         
1 23775U 96005A   22364.01734382 -.00000031  00000+0  00000+0 0  9992
2 23775  14.5053   4.0267 0018665 204.3275 330.6887  0.99880955 98412
GORIZONT 32 [-]         
1 23880U 96034A   22365.27389760 -.00000006  00000+0  00000+0 0  9998
2 23880  14.4574   4.5256 0008444 358.0323  13.2266  1.00211913 97389
GORIZONT 33 [-]         
1 26372U 00029A   22364.35735957 -.00000166  00000+0  00000+0 0  9994
2 26372  13.2305  15.7972 0002255 101.2961  91.7608  1.00293971 82745
